[{"OBJECT_NAME":"STARLINK-4502","OBJECT_ID":"2022-101AG","EPOCH":"2026-03-09T09:32:45.285504","MEAN_MOTION":15.08837837,"ECCENTRICITY":0.00013195,"INCLINATION":53.2171,"RA_OF_ASC_NODE":65.4309,"ARG_OF_PERICENTER":90.361,"MEAN_ANOMALY":269.7533,"EPHEMERIS_TYPE":0,"CLASSIFICATION_TYPE":"U","NORAD_CAT_ID":53557,"ELEMENT_SET_NO":999,"REV_AT_EPOCH":19691,"BSTAR":1.1913437e-5,"MEAN_MOTION_DOT":-9.8e-7,"MEAN_MOTION_DDOT":0},{"OBJECT_NAME":"MINOTAUR 4 R\/B","OBJECT_ID":"2020-046E","EPOCH":"2026-03-09T23:21:28.488960","MEAN_MOTION":15.06543892,"ECCENTRICITY":0.00095926,"INCLINATION":53.9792,"RA_OF_ASC_NODE":306.0413,"ARG_OF_PERICENTER":86.078,"MEAN_ANOMALY":274.1318,"EPHEMERIS_TYPE":0,"CLASSIFICATION_TYPE":"U","NORAD_CAT_ID":45877,"ELEMENT_SET_NO":999,"REV_AT_EPOCH":23396,"BSTAR":0.00016618262,"MEAN_MOTION_DOT":2.204e-5,"MEAN_MOTION_DDOT":0}]
